{
  "type": "FeatureCollection",
  "name": "Caraguatatuba",
  "source": {
    "orgao": "IBGE",
    "url": "https://servicodados.ibge.gov.br/api/v3/malhas/municipios/3510500?formato=application/vnd.geo+json&qualidade=minima",
    "qualidade": "minima",
    "obtido_em": "2026-08-01",
    "uso": "recorte espacial de aquisição; não representa setor de risco"
  },
  "features": [
    {
      "type": "Feature",
      "geometry": {
        "type": "Polygon",
        "coordinates": [[[-45.427, -23.7084], [-45.4283, -23.6579], [-45.4066, -23.6239], [-45.3569, -23.6227], [-45.3114, -23.5757], [-45.2767, -23.5783], [-45.2734, -23.4831], [-45.307, -23.496], [-45.3489, -23.5479], [-45.4439, -23.5561], [-45.4573, -23.5771], [-45.4867, -23.5726], [-45.5236, -23.6045], [-45.54, -23.5968], [-45.5805, -23.6465], [-45.6311, -23.6572], [-45.6373, -23.6219], [-45.7025, -23.6369], [-45.7196, -23.6489], [-45.6793, -23.6666], [-45.664, -23.6993], [-45.5764, -23.7258], [-45.531, -23.756], [-45.5071, -23.7298], [-45.4523, -23.7253], [-45.427, -23.7084]]]
      },
      "properties": {
        "codarea": "3510500",
        "municipio": "Caraguatatuba",
        "uf": "SP"
      }
    }
  ]
}
